{
  "type": "FeatureCollection",
  "features": [
    {
      "type": "Feature",
      "properties": {
        "NOMBRE": "Bocas del Toro"
      },
      "geometry": {
        "type": "Polygon",
        "coordinates": [
          [
            [-82.4, 9.6],
            [-82.0, 9.7],
            [-81.8, 9.4],
            [-82.1, 9.2],
            [-82.4, 9.6]
          ]
        ]
      }
    },
    {
      "type": "Feature",
      "properties": {
        "NOMBRE": "Chiriquí"
      },
      "geometry": {
        "type": "Polygon",
        "coordinates": [
          [
            [-82.9, 9.0],
            [-82.4, 9.2],
            [-82.1, 9.0],
            [-82.3, 8.6],
            [-82.9, 8.6],
            [-82.9, 9.0]
          ]
        ]
      }
    },
    {
      "type": "Feature",
      "properties": {
        "NOMBRE": "Veraguas"
      },
      "geometry": {
        "type": "Polygon",
        "coordinates": [
          [
            [-82.3, 8.6],
            [-81.9, 8.6],
            [-81.5, 8.3],
            [-81.8, 8.0],
            [-82.3, 8.0],
            [-82.3, 8.6]
          ]
        ]
      }
    },
    {
      "type": "Feature",
      "properties": {
        "NOMBRE": "Herrera"
      },
      "geometry": {
        "type": "Polygon",
        "coordinates": [
          [
            [-81.5, 8.3],
            [-81.0, 8.4],
            [-80.8, 8.1],
            [-81.2, 7.9],
            [-81.8, 8.0],
            [-81.5, 8.3]
          ]
        ]
      }
    },
    {
      "type": "Feature",
      "properties": {
        "NOMBRE": "Los Santos"
      },
      "geometry": {
        "type": "Polygon",
        "coordinates": [
          [
            [-81.0, 8.4],
            [-80.5, 8.5],
            [-80.3, 8.2],
            [-80.8, 8.1],
            [-81.0, 8.4]
          ]
        ]
      }
    },
    {
      "type": "Feature",
      "properties": {
        "NOMBRE": "Coclé"
      },
      "geometry": {
        "type": "Polygon",
        "coordinates": [
          [
            [-81.8, 8.0],
            [-81.2, 7.9],
            [-80.8, 8.1],
            [-80.5, 8.5],
            [-80.8, 9.0],
            [-81.3, 8.8],
            [-81.8, 8.0]
          ]
        ]
      }
    },
    {
      "type": "Feature",
      "properties": {
        "NOMBRE": "Colón"
      },
      "geometry": {
        "type": "Polygon",
        "coordinates": [
          [
            [-81.3, 8.8],
            [-80.8, 9.0],
            [-80.2, 9.3],
            [-79.8, 9.5],
            [-80.4, 9.6],
            [-81.0, 9.2],
            [-81.3, 8.8]
          ]
        ]
      }
    },
    {
      "type": "Feature",
      "properties": {
        "NOMBRE": "Panamá Oeste"
      },
      "geometry": {
        "type": "Polygon",
        "coordinates": [
          [
            [-80.8, 9.0],
            [-80.2, 9.3],
            [-79.8, 9.2],
            [-79.9, 8.8],
            [-80.5, 8.5],
            [-80.8, 9.0]
          ]
        ]
      }
    },
    {
      "type": "Feature",
      "properties": {
        "NOMBRE": "Panamá"
      },
      "geometry": {
        "type": "Polygon",
        "coordinates": [
          [
            [-79.8, 9.2],
            [-79.2, 9.3],
            [-78.9, 9.0],
            [-78.8, 8.5],
            [-79.4, 8.4],
            [-79.8, 8.8],
            [-79.8, 9.2]
          ]
        ]
      }
    },
    {
      "type": "Feature",
      "properties": {
        "NOMBRE": "Darién"
      },
      "geometry": {
        "type": "Polygon",
        "coordinates": [
          [
            [-78.9, 9.0],
            [-78.2, 9.2],
            [-77.8, 8.8],
            [-77.9, 8.3],
            [-78.8, 8.5],
            [-78.9, 9.0]
          ]
        ]
      }
    },
    {
      "type": "Feature",
      "properties": {
        "NOMBRE": "Ngäbe Buglé"
      },
      "geometry": {
        "type": "Polygon",
        "coordinates": [
          [
            [-82.4, 9.2],
            [-81.9, 9.1],
            [-81.6, 8.8],
            [-82.0, 8.7],
            [-82.3, 8.9],
            [-82.4, 9.2]
          ]
        ]
      }
    }
  ]
}
